[
 {
   "ID": 1,
   "Company_Name": "Alpha 3D",
   "City": "Akron",
   "State": "OH",
   "Zip": 44306,
   "Build_Preparation": "magma",
   "lat": 41.04355,
   "long": -81.5148,
   "Part": 1,
   "Material": "GLASS",
   "Type": "Part Supplier"
 },
 {
   "ID": 2,
   "Company_Name": "Bravo Company",
   "City": "Akron",
   "State": "OH",
   "Zip": 44311,
   "Build_Preparation": "magma",
   "lat": 41.06371,
   "long": -81.52522,
   "Part": 2,
   "Material": "GLASS",
   "Type": "Equipment Supplier"
 },
 {
   "ID": 3,
   "Company_Name": "Hotel Alloys",
   "City": "Akron",
   "State": "OH",
   "Zip": 44306,
   "Build_Preparation": "Siemens NX",
   "lat": 41.08306,
   "long": -81.51849,
   "Part": 3,
   "Material": "GLASS",
   "Type": "Material Supplier"
 },
 {
   "ID": 4,
   "Company_Name": "Charlie Adds",
   "City": "Akron",
   "State": "OH",
   "Zip": 44311,
   "Build_Preparation": "magma",
   "lat": 41.07226,
   "long": -81.51666,
   "Part": 4,
   "Material": "GLASS",
   "Type": "Part Supplier"
 },
 {
   "ID": 5,
   "Company_Name": "Mike Manufacturing",
   "City": "Akron",
   "State": "OH",
   "Zip": 44310,
   "Build_Preparation": "Solidworks, Abaqus",
   "lat": 41.11904,
   "long": -81.4895,
   "Part": 5,
   "Material": "GLASS",
   "Type": "Equipment Supplier"
 },
 {
   "ID": 6,
   "Company_Name": "Sierra Additive",
   "City": "Akron",
   "State": "OH",
   "Zip": 44305,
   "Build_Preparation": "Moldex3D",
   "lat": 41.06684,
   "long": -81.4794,
   "Part": 6,
   "Material": "GLASS",
   "Type": "Material Supplier"
 },
 {
   "ID": 7,
   "Company_Name": "Linear Lima",
   "City": "Ashtabula",
   "State": "OH",
   "Zip": 44004,
   "Build_Preparation": "Fusion 360",
   "lat": 41.86505,
   "long": -80.78981,
   "Part": 7,
   "Material": "GLASS",
   "Type": "Part Supplier"
 },
 {
   "ID": 8,
   "Company_Name": "Papa Printing",
   "City": "Atlasburg",
   "State": "PA",
   "Zip": 15004,
   "Build_Preparation": "ANSYS",
   "lat": 40.32121,
   "long": -80.35398,
   "Part": 8,
   "Material": "GLASS",
   "Type": "Equipment Supplier"
 },
 {
   "ID": 9,
   "Company_Name": "Juliet Tool & Die",
   "City": "Munroe Falls",
   "State": "OH",
   "Zip": 44262,
   "Build_Preparation": "magma",
   "lat": 41.13966,
   "long": -81.43883,
   "Part": 9,
   "Material": "GLASS",
   "Type": "Material Supplier"
 },
 {
   "ID": 10,
   "Company_Name": "India LLC",
   "City": "New Cumberland",
   "State": "WV",
   "Zip": 26047,
   "Build_Preparation": "magma",
   "lat": 40.49673,
   "long": -80.60674,
   "Part": 10,
   "Material": "GLASS",
   "Type": "Part Supplier"
 },
 {
   "ID": 11,
   "Company_Name": "India 3D",
   "City": "New Kensington",
   "State": "PA",
   "Zip": 15068,
   "Build_Preparation": "magma",
   "lat": 40.57506,
   "long": -79.76106,
   "Part": 11,
   "Material": "GLASS",
   "Type": "Equipment Supplier"
 },
 {
   "ID": 12,
   "Company_Name": "Foxtrot Tool",
   "City": "New Philadelphia",
   "State": "OH",
   "Zip": 44663,
   "Build_Preparation": "Proprietary",
   "lat": 40.50158,
   "long": -81.45213,
   "Part": 12,
   "Material": "GLASS",
   "Type": "Material Supplier"
 },
 {
   "ID": 13,
   "Company_Name": "Hotel Tool & Die",
   "City": "Oakdale",
   "State": "PA",
   "Zip": 15071,
   "Build_Preparation": "Solidworks, Abaqus",
   "lat": 40.39813,
   "long": -80.18561,
   "Part": 13,
   "Material": "GLASS",
   "Type": "Part Supplier"
 },
 {
   "ID": 14,
   "Company_Name": "Hotel Inc_",
   "City": "Pflugerville",
   "State": "TX",
   "Zip": 78660,
   "Build_Preparation": "Moldex3D",
   "lat": 30.44373,
   "long": -97.63053,
   "Part": 1,
   "Material": "POLYMER",
   "Type": "Equipment Supplier"
 },
 {
   "ID": 15,
   "Company_Name": "Foxtrot Inc_",
   "City": "Pittsburgh",
   "State": "PA",
   "Zip": 15213,
   "Build_Preparation": "Fusion 360",
   "lat": 40.43808,
   "long": -79.95421,
   "Part": 2,
   "Material": "POLYMER",
   "Type": "Material Supplier"
 },
 {
   "ID": 16,
   "Company_Name": "Foxtrot 3D, LLC",
   "City": "Pittsburgh",
   "State": "PA",
   "Zip": 15207,
   "Build_Preparation": "ANSYS",
   "lat": 40.42504,
   "long": -79.95309,
   "Part": 3,
   "Material": "POLYMER",
   "Type": "Part Supplier"
 },
 {
   "ID": 17,
   "Company_Name": "Echo Company",
   "City": "Salem",
   "State": "OH",
   "Zip": 44460,
   "Build_Preparation": "Solidworks, Abaqus",
   "lat": 40.8959,
   "long": -80.85529,
   "Part": 4,
   "Material": "POLYMER",
   "Type": "Equipment Supplier"
 },
 {
   "ID": 18,
   "Company_Name": "Echo LLC",
   "City": "Solon",
   "State": "OH",
   "Zip": 44139,
   "Build_Preparation": "Moldex3D",
   "lat": 41.39391,
   "long": -81.44595,
   "Part": 5,
   "Material": "POLYMER",
   "Type": "Material Supplier"
 },
 {
   "ID": 19,
   "Company_Name": "Echo Inc_",
   "City": "Solon",
   "State": "OH",
   "Zip": 44139,
   "Build_Preparation": "Fusion 360",
   "lat": 41.39259,
   "long": -81.44302,
   "Part": 6,
   "Material": "POLYMER",
   "Type": "Part Supplier"
 },
 {
   "ID": 20,
   "Company_Name": "Echo Solutions",
   "City": "Streetsboro",
   "State": "OH",
   "Zip": 44241,
   "Build_Preparation": "ANSYS",
   "lat": 41.24111,
   "long": -81.35413,
   "Part": 7,
   "Material": "POLYMER",
   "Type": "Equipment Supplier"
 },
 {
   "ID": 21,
   "Company_Name": "Bravo Technologies",
   "City": "Warrensville Heights",
   "State": "OH",
   "Zip": 44128,
   "Build_Preparation": "Siemens NX",
   "lat": 41.43511,
   "long": -81.49702,
   "Part": 8,
   "Material": "POLYMER",
   "Type": "Material Supplier"
 },
 {
   "ID": 22,
   "Company_Name": "Alpha GLASSstics",
   "City": "Westlake",
   "State": "OH",
   "Zip": 44145,
   "Build_Preparation": "Solidworks, Abaqus",
   "lat": 41.46668,
   "long": -81.93057,
   "Part": 9,
   "Material": "POLYMER",
   "Type": "Part Supplier"
 },
 {
   "ID": 23,
   "Company_Name": "Alpha Industries",
   "City": "Westlake",
   "State": "OH",
   "Zip": 44145,
   "Build_Preparation": "Moldex3D",
   "lat": 41.46365,
   "long": -81.95167,
   "Part": 10,
   "Material": "POLYMER",
   "Type": "Equipment Supplier"
 },
 {
   "ID": 24,
   "Company_Name": "Alpha LLC",
   "City": "Willoughby",
   "State": "OH",
   "Zip": 44094,
   "Build_Preparation": "Fusion 360",
   "lat": 41.62852,
   "long": -81.42598,
   "Part": 11,
   "Material": "METAL",
   "Type": "Material Supplier"
 },
 {
   "ID": 25,
   "Company_Name": "Alpha Technology",
   "City": "Youngstown",
   "State": "OH",
   "Zip": 44503,
   "Build_Preparation": "ANSYS",
   "lat": 41.10333,
   "long": -80.6485,
   "Part": 12,
   "Material": "METAL",
   "Type": "Part Supplier"
 },
 {
   "ID": 26,
   "Company_Name": "Romeo Prototyping",
   "City": "Youngstown",
   "State": "OH",
   "Zip": 44503,
   "Build_Preparation": "magma",
   "lat": 41.10823,
   "long": -80.64304,
   "Part": 13,
   "Material": "METAL",
   "Type": "Equipment Supplier"
 },
 {
   "ID": 27,
   "Company_Name": "Juliet LLC",
   "City": "Youngstown",
   "State": "OH",
   "Zip": 44509,
   "Build_Preparation": "magma",
   "lat": 41.10224,
   "long": -80.73113,
   "Part": 1,
   "Material": "METAL",
   "Type": "Material Supplier"
 },
 {
   "ID": 28,
   "Company_Name": "Juliet Co_",
   "City": "Latrobe",
   "State": "PA",
   "Zip": 15650,
   "Build_Preparation": "Solidworks, Abaqus",
   "lat": 40.31729,
   "long": -79.38403,
   "Part": 2,
   "Material": "METAL",
   "Type": "Part Supplier"
 },
 {
   "ID": 29,
   "Company_Name": "Juliet Inc_",
   "City": "Youngstown",
   "State": "OH",
   "Zip": 44509,
   "Build_Preparation": "Moldex3D",
   "lat": 41.10224,
   "long": -80.73113,
   "Part": 3,
   "Material": "METAL",
   "Type": "Equipment Supplier"
 },
 {
   "ID": 30,
   "Company_Name": "Delta Tool",
   "City": "Youngstown",
   "State": "OH",
   "Zip": 44503,
   "Build_Preparation": "Fusion 360",
   "lat": 41.10252,
   "long": -80.65217,
   "Part": 4,
   "Material": "METAL",
   "Type": "Material Supplier"
 },
 {
   "ID": 31,
   "Company_Name": "Tango Inc_",
   "City": "Johnstown",
   "State": "PA",
   "Zip": 15902,
   "Build_Preparation": "ANSYS",
   "lat": 40.29524,
   "long": -78.90697,
   "Part": 5,
   "Material": "METAL",
   "Type": "Part Supplier"
 },
 {
   "ID": 32,
   "Company_Name": "Tango 3D Printing, LLC",
   "City": "Johnstown",
   "State": "PA",
   "Zip": 15904,
   "Build_Preparation": "Solidworks, Abaqus",
   "lat": 40.32674,
   "long": -78.92197,
   "Part": 6,
   "Material": "METAL",
   "Type": "Equipment Supplier"
 },
 {
   "ID": 33,
   "Company_Name": "Sierra 3D",
   "City": "Latrobe",
   "State": "PA",
   "Zip": 15650,
   "Build_Preparation": "Moldex3D",
   "lat": 40.31971,
   "long": -79.37959,
   "Part": 7,
   "Material": "METAL",
   "Type": "Material Supplier"
 },
 {
   "ID": 34,
   "Company_Name": "Quebec Tool & Due",
   "City": "Latrobe",
   "State": "PA",
   "Zip": 15650,
   "Build_Preparation": "Fusion 360",
   "lat": 40.29974,
   "long": -79.37151,
   "Part": 8,
   "Material": "METAL",
   "Type": "Part Supplier"
 },
 {
   "ID": 35,
   "Company_Name": "Quebec Inc_",
   "City": "Leechburg",
   "State": "PA",
   "Zip": 15656,
   "Build_Preparation": "ANSYS",
   "lat": 40.62747,
   "long": -79.60517,
   "Part": 9,
   "Material": "METAL",
   "Type": "Equipment Supplier"
 },
 {
   "ID": 36,
   "Company_Name": "Quebec POLYMERmers",
   "City": "Macedonia",
   "State": "OH",
   "Zip": 44056,
   "Build_Preparation": "Solidworks, Abaqus",
   "lat": 41.31394,
   "long": -81.51247,
   "Part": 10,
   "Material": "METAL",
   "Type": "Material Supplier"
 },
 {
   "ID": 37,
   "Company_Name": "Oscar Inc_",
   "City": "Mansfield",
   "State": "OH",
   "Zip": 44903,
   "Build_Preparation": "Moldex3D",
   "lat": 40.75043,
   "long": -82.47067,
   "Part": 11,
   "Material": "METAL",
   "Type": "Part Supplier"
 },
 {
   "ID": 38,
   "Company_Name": "Oscar Additives",
   "City": "Mayfield Heights",
   "State": "OH",
   "Zip": 44124,
   "Build_Preparation": "Fusion 360",
   "lat": 41.51765,
   "long": -81.44983,
   "Part": 12,
   "Material": "METAL",
   "Type": "Equipment Supplier"
 },
 {
   "ID": 39,
   "Company_Name": "November Chemicals International",
   "City": "Meadville",
   "State": "PA",
   "Zip": 16335,
   "Build_Preparation": "ANSYS",
   "lat": 41.62976,
   "long": -80.15583,
   "Part": 13,
   "Material": "METAL",
   "Type": "Material Supplier"
 }
]